KUIPER-00408            
1 68924U 26098F   26188.71529388  .00015526  00000+0  59423-3 0  9996
2 68924  51.8786 331.5131 0013514 233.9353 126.0378 15.26658077 10460
KUIPER-00409            
1 68925U 26098G   26188.75003471 -.01110677  00000+0 -60769-1 0  9990
2 68925  51.8848 329.8813 0005428 252.3830 270.4343 15.16552044  5801
KUIPER-00410            
1 68926U 26098H   26188.44917008  .00007545  00000+0  29599-3 0  9991
2 68926  51.8779 332.7215 0013342 226.8149 133.1719 15.26648683 10429
KUIPER-00412            
1 68927U 26098J   26188.40521898  .00024402  00000+0  66088-3 0  9991
2 68927  51.8800 329.5441 0002197 304.4224  55.6555 15.37529605 10467
KUIPER-00413            
1 68928U 26098K   26188.75003471 -.01312764  00000+0 -71149-1 0  9998
2 68928  51.8820 332.2644 0022058 236.1069 198.5054 15.17087175  5130
KUIPER-00414            
1 68929U 26098L   26188.71981066  .00000452  00000+0  88285-4 0  9997
2 68929  51.8975 339.9639 0001246 234.5915 125.4931 14.79933777 10345
KUIPER-00415            
1 68930U 26098M   26188.39601144  .00013186  00000+0  45337-3 0  9997
2 68930  51.8791 331.6803 0008909 218.1323 141.9032 15.30372248 10432
KUIPER-00416            
1 68931U 26098N   26188.39728691  .00025514  00000+0  68933-3 0  9990
2 68931  51.8758 329.4729 0002928 308.2843  51.7880 15.37576437 10466
KUIPER-00420            
1 68932U 26098P   26188.44210786  .00018591  00000+0  52263-3 0  9994
2 68932  51.8787 329.7749 0002883 271.8198  88.2458 15.36544514 10468
KUIPER-00421            
1 68933U 26098Q   26188.69482027  .00013112  00000+0  45367-3 0  9992
2 68933  51.8784 329.9350 0007347 203.9679 156.0963 15.30183175 10489
KUIPER-00425            
1 68934U 26098R   26188.72031083  .00009825  00000+0  38550-3 0  9991
2 68934  51.8792 331.5313 0015015 225.5592 134.4162 15.26265533 10465
KUIPER-00430            
1 68935U 26098S   26188.75003471 -.01519154  00000+0 -90716-1 0  9999
2 68935  51.8877 331.7430 0018365 225.7585 163.7383 15.13739281  5889
KUIPER-00431            
1 68936U 26098T   26188.75003471 -.00008363  00000+0 -66326-3 0  9996
2 68936  51.8909 332.9804 0014357 212.8960 245.2867 14.98821741  3229
KUIPER-00432            
1 68937U 26098U   26188.45172159  .00016473  00000+0  60329-3 0  9990
2 68937  51.8774 332.0088 0010873 219.7930 140.2256 15.28098559 10431
KUIPER-00434            
1 68938U 26098V   26188.75003471 -.02118876  00000+0 -11193+0 0  9999
2 68938  51.8806 329.8075 0003974 196.2867  57.3356 15.18835186  5123
KUIPER-00436            
1 68939U 26098W   26188.75003471 -.01035795  00000+0 -51015-1 0  9996
2 68939  51.8797 330.2597 0009589 229.6658 151.0672 15.20385950  3915
