{"fetched_at":"2026-07-08T07:03:33.083Z","source":"https://celestrak.org/NORAD/elements/gp.php?GROUP=kuiper&FORMAT=JSON","constellation":"kuiper","records":[{"OBJECT_NAME":"KUIPER-00408","OBJECT_ID":"2026-098F","EPOCH":"2026-07-07T17:10:01.391232","CLASSIFICATION_TYPE":"U","MEAN_MOTION":15.26658077,"ECCENTRICITY":0.0013514,"INCLINATION":51.8786,"RA_OF_ASC_NODE":331.5131,"ARG_OF_PERICENTER":233.9353,"MEAN_ANOMALY":126.0378,"EPHEMERIS_TYPE":0,"NORAD_CAT_ID":68924,"ELEMENT_SET_NO":999,"REV_AT_EPOCH":1046,"BSTAR":0.00059423,"MEAN_MOTION_DOT":0.00015526,"MEAN_MOTION_DDOT":0},{"OBJECT_NAME":"KUIPER-00409","OBJECT_ID":"2026-098G","EPOCH":"2026-07-07T18:00:02.998944","CLASSIFICATION_TYPE":"U","MEAN_MOTION":15.16552044,"ECCENTRICITY":0.0005428,"INCLINATION":51.8848,"RA_OF_ASC_NODE":329.8813,"ARG_OF_PERICENTER":252.383,"MEAN_ANOMALY":270.4343,"EPHEMERIS_TYPE":0,"NORAD_CAT_ID":68925,"ELEMENT_SET_NO":999,"REV_AT_EPOCH":580,"BSTAR":-0.060769,"MEAN_MOTION_DOT":-0.01110677,"MEAN_MOTION_DDOT":0},{"OBJECT_NAME":"KUIPER-00410","OBJECT_ID":"2026-098H","EPOCH":"2026-07-07T10:46:48.294912","CLASSIFICATION_TYPE":"U","MEAN_MOTION":15.26648683,"ECCENTRICITY":0.00133423,"INCLINATION":51.8779,"RA_OF_ASC_NODE":332.7215,"ARG_OF_PERICENTER":226.8149,"MEAN_ANOMALY":133.1719,"EPHEMERIS_TYPE":0,"NORAD_CAT_ID":68926,"ELEMENT_SET_NO":999,"REV_AT_EPOCH":1042,"BSTAR":0.00029599123,"MEAN_MOTION_DOT":0.00007545,"MEAN_MOTION_DDOT":0},{"OBJECT_NAME":"KUIPER-00412","OBJECT_ID":"2026-098J","EPOCH":"2026-07-07T09:43:30.919872","CLASSIFICATION_TYPE":"U","MEAN_MOTION":15.37529605,"ECCENTRICITY":0.00021979,"INCLINATION":51.88,"RA_OF_ASC_NODE":329.5441,"ARG_OF_PERICENTER":304.4224,"MEAN_ANOMALY":55.6555,"EPHEMERIS_TYPE":0,"NORAD_CAT_ID":68927,"ELEMENT_SET_NO":999,"REV_AT_EPOCH":1046,"BSTAR":0.0006608768,"MEAN_MOTION_DOT":0.00024402,"MEAN_MOTION_DDOT":0},{"OBJECT_NAME":"KUIPER-00413","OBJECT_ID":"2026-098K","EPOCH":"2026-07-07T18:00:02.998944","CLASSIFICATION_TYPE":"U","MEAN_MOTION":15.17087175,"ECCENTRICITY":0.0022058,"INCLINATION":51.882,"RA_OF_ASC_NODE":332.2644,"ARG_OF_PERICENTER":236.1069,"MEAN_ANOMALY":198.5054,"EPHEMERIS_TYPE":0,"NORAD_CAT_ID":68928,"ELEMENT_SET_NO":999,"REV_AT_EPOCH":513,"BSTAR":-0.071149,"MEAN_MOTION_DOT":-0.01312764,"MEAN_MOTION_DDOT":0},{"OBJECT_NAME":"KUIPER-00414","OBJECT_ID":"2026-098L","EPOCH":"2026-07-07T17:16:31.641024","CLASSIFICATION_TYPE":"U","MEAN_MOTION":14.79933777,"ECCENTRICITY":0.0001246,"INCLINATION":51.8975,"RA_OF_ASC_NODE":339.9639,"ARG_OF_PERICENTER":234.5915,"MEAN_ANOMALY":125.4931,"EPHEMERIS_TYPE":0,"NORAD_CAT_ID":68929,"ELEMENT_SET_NO":999,"REV_AT_EPOCH":1034,"BSTAR":0.000088285,"MEAN_MOTION_DOT":0.00000452,"MEAN_MOTION_DDOT":0},{"OBJECT_NAME":"KUIPER-00415","OBJECT_ID":"2026-098M","EPOCH":"2026-07-07T09:30:15.388416","CLASSIFICATION_TYPE":"U","MEAN_MOTION":15.30372248,"ECCENTRICITY":0.00089095,"INCLINATION":51.8791,"RA_OF_ASC_NODE":331.6803,"ARG_OF_PERICENTER":218.1323,"MEAN_ANOMALY":141.9032,"EPHEMERIS_TYPE":0,"NORAD_CAT_ID":68930,"ELEMENT_SET_NO":999,"REV_AT_EPOCH":1043,"BSTAR":0.00045337337,"MEAN_MOTION_DOT":0.00013186,"MEAN_MOTION_DDOT":0},{"OBJECT_NAME":"KUIPER-00416","OBJECT_ID":"2026-098N","EPOCH":"2026-07-07T09:32:05.589024","CLASSIFICATION_TYPE":"U","MEAN_MOTION":15.37576437,"ECCENTRICITY":0.0002928,"INCLINATION":51.8758,"RA_OF_ASC_NODE":329.4729,"ARG_OF_PERICENTER":308.2843,"MEAN_ANOMALY":51.788,"EPHEMERIS_TYPE":0,"NORAD_CAT_ID":68931,"ELEMENT_SET_NO":999,"REV_AT_EPOCH":1046,"BSTAR":0.00068932732,"MEAN_MOTION_DOT":0.00025514,"MEAN_MOTION_DDOT":0},{"OBJECT_NAME":"KUIPER-00420","OBJECT_ID":"2026-098P","EPOCH":"2026-07-07T10:36:38.119104","CLASSIFICATION_TYPE":"U","MEAN_MOTION":15.36544514,"ECCENTRICITY":0.00028837,"INCLINATION":51.8787,"RA_OF_ASC_NODE":329.7749,"ARG_OF_PERICENTER":271.8198,"MEAN_ANOMALY":88.2458,"EPHEMERIS_TYPE":0,"NORAD_CAT_ID":68932,"ELEMENT_SET_NO":999,"REV_AT_EPOCH":1046,"BSTAR":0.00052263197,"MEAN_MOTION_DOT":0.00018591,"MEAN_MOTION_DDOT":0},{"OBJECT_NAME":"KUIPER-00421","OBJECT_ID":"2026-098Q","EPOCH":"2026-07-07T16:40:32.471328","CLASSIFICATION_TYPE":"U","MEAN_MOTION":15.30183175,"ECCENTRICITY":0.0007347,"INCLINATION":51.8784,"RA_OF_ASC_NODE":329.935,"ARG_OF_PERICENTER":203.9679,"MEAN_ANOMALY":156.0963,"EPHEMERIS_TYPE":0,"NORAD_CAT_ID":68933,"ELEMENT_SET_NO":999,"REV_AT_EPOCH":1048,"BSTAR":0.00045367,"MEAN_MOTION_DOT":0.00013112,"MEAN_MOTION_DDOT":0},{"OBJECT_NAME":"KUIPER-00425","OBJECT_ID":"2026-098R","EPOCH":"2026-07-07T17:17:14.855712","CLASSIFICATION_TYPE":"U","MEAN_MOTION":15.26265533,"ECCENTRICITY":0.0015015,"INCLINATION":51.8792,"RA_OF_ASC_NODE":331.5313,"ARG_OF_PERICENTER":225.5592,"MEAN_ANOMALY":134.4162,"EPHEMERIS_TYPE":0,"NORAD_CAT_ID":68934,"ELEMENT_SET_NO":999,"REV_AT_EPOCH":1046,"BSTAR":0.0003855,"MEAN_MOTION_DOT":0.00009825,"MEAN_MOTION_DDOT":0},{"OBJECT_NAME":"KUIPER-00430","OBJECT_ID":"2026-098S","EPOCH":"2026-07-07T18:00:02.998944","CLASSIFICATION_TYPE":"U","MEAN_MOTION":15.13739281,"ECCENTRICITY":0.0018365,"INCLINATION":51.8877,"RA_OF_ASC_NODE":331.743,"ARG_OF_PERICENTER":225.7585,"MEAN_ANOMALY":163.7383,"EPHEMERIS_TYPE":0,"NORAD_CAT_ID":68935,"ELEMENT_SET_NO":999,"REV_AT_EPOCH":588,"BSTAR":-0.090716,"MEAN_MOTION_DOT":-0.01519154,"MEAN_MOTION_DDOT":0},{"OBJECT_NAME":"KUIPER-00431","OBJECT_ID":"2026-098T","EPOCH":"2026-07-07T18:00:02.998944","CLASSIFICATION_TYPE":"U","MEAN_MOTION":14.98821741,"ECCENTRICITY":0.0014357,"INCLINATION":51.8909,"RA_OF_ASC_NODE":332.9804,"ARG_OF_PERICENTER":212.896,"MEAN_ANOMALY":245.2867,"EPHEMERIS_TYPE":0,"NORAD_CAT_ID":68936,"ELEMENT_SET_NO":999,"REV_AT_EPOCH":322,"BSTAR":-0.00066326,"MEAN_MOTION_DOT":-0.00008363,"MEAN_MOTION_DDOT":0},{"OBJECT_NAME":"KUIPER-00432","OBJECT_ID":"2026-098U","EPOCH":"2026-07-07T10:50:28.745376","CLASSIFICATION_TYPE":"U","MEAN_MOTION":15.28098559,"ECCENTRICITY":0.00108734,"INCLINATION":51.8774,"RA_OF_ASC_NODE":332.0088,"ARG_OF_PERICENTER":219.793,"MEAN_ANOMALY":140.2256,"EPHEMERIS_TYPE":0,"NORAD_CAT_ID":68937,"ELEMENT_SET_NO":999,"REV_AT_EPOCH":1043,"BSTAR":0.00060328924,"MEAN_MOTION_DOT":0.00016473,"MEAN_MOTION_DDOT":0},{"OBJECT_NAME":"KUIPER-00434","OBJECT_ID":"2026-098V","EPOCH":"2026-07-07T18:00:02.998944","CLASSIFICATION_TYPE":"U","MEAN_MOTION":15.18835186,"ECCENTRICITY":0.0003974,"INCLINATION":51.8806,"RA_OF_ASC_NODE":329.8075,"ARG_OF_PERICENTER":196.2867,"MEAN_ANOMALY":57.3356,"EPHEMERIS_TYPE":0,"NORAD_CAT_ID":68938,"ELEMENT_SET_NO":999,"REV_AT_EPOCH":512,"BSTAR":-0.11193,"MEAN_MOTION_DOT":-0.02118876,"MEAN_MOTION_DDOT":0},{"OBJECT_NAME":"KUIPER-00436","OBJECT_ID":"2026-098W","EPOCH":"2026-07-07T18:00:02.998944","CLASSIFICATION_TYPE":"U","MEAN_MOTION":15.2038595,"ECCENTRICITY":0.0009589,"INCLINATION":51.8797,"RA_OF_ASC_NODE":330.2597,"ARG_OF_PERICENTER":229.6658,"MEAN_ANOMALY":151.0672,"EPHEMERIS_TYPE":0,"NORAD_CAT_ID":68939,"ELEMENT_SET_NO":999,"REV_AT_EPOCH":391,"BSTAR":-0.051015,"MEAN_MOTION_DOT":-0.01035795,"MEAN_MOTION_DDOT":0}]}
